[{"OBJECT_NAME":"STARLINK-2497","OBJECT_ID":"2021-040AD","EPOCH":"2026-03-09T14:41:13.445952","MEAN_MOTION":15.3018822,"ECCENTRICITY":0.0001813,"INCLINATION":53.1606,"RA_OF_ASC_NODE":178.4891,"ARG_OF_PERICENTER":58.8025,"MEAN_ANOMALY":301.3153,"EPHEMERIS_TYPE":0,"CLASSIFICATION_TYPE":"U","NORAD_CAT_ID":48455,"ELEMENT_SET_NO":999,"REV_AT_EPOCH":26666,"BSTAR":0.00036088,"MEAN_MOTION_DOT":0.0001034,"MEAN_MOTION_DDOT":0},{"OBJECT_NAME":"TITAN 3C TRANSTAGE DEB","OBJECT_ID":"1965-082PT","EPOCH":"2026-03-09T13:23:41.116128","MEAN_MOTION":15.28908269,"ECCENTRICITY":0.00104371,"INCLINATION":32.0266,"RA_OF_ASC_NODE":255.1391,"ARG_OF_PERICENTER":172.8339,"MEAN_ANOMALY":187.2474,"EPHEMERIS_TYPE":0,"CLASSIFICATION_TYPE":"U","NORAD_CAT_ID":3462,"ELEMENT_SET_NO":999,"REV_AT_EPOCH":24824,"BSTAR":0.0004444037,"MEAN_MOTION_DOT":0.00012939,"MEAN_MOTION_DDOT":0}]
